{"type":"FeatureCollection","features":[{"type":"Feature","geometry":{"type":"Polygon","coordinates":[[[-85.39127,30.02816],[-85.38867,29.92436],[-85.43433,29.89999],[-85.44034,29.78811],[-85.37285,29.50701],[-85.31366,29.50793],[-85.25967,29.52481],[-85.21146,29.49706],[-85.22243,29.6888],[-85.20623,29.71119],[-85.1094,29.77679],[-85.07822,29.76862],[-85.06476,29.78703],[-85.04008,29.77935],[-85.02053,29.80737],[-85.01969,29.81987],[-85.03221,29.829],[-85.04136,29.87678],[-85.05436,29.90186],[-85.0413,29.93106],[-85.02947,29.9313],[-85.02647,29.95284],[-85.01794,29.95097],[-85.02725,29.98212],[-85.0502,29.99036],[-85.05651,30.00327],[-85.09898,30.01532],[-85.09716,30.0241],[-85.11467,30.02341],[-85.13557,30.04363],[-85.13458,30.08279],[-85.15401,30.09204],[-85.14492,30.09747],[-85.14861,30.11145],[-85.13024,30.11736],[-85.14542,30.12466],[-85.13209,30.14441],[-85.13864,30.1469],[-85.13306,30.16064],[-85.13977,30.16285],[-85.13867,30.17255],[-85.11566,30.19998],[-85.38968,30.20097],[-85.39127,30.02816]]]},"properties":{"NAME":"Gulf County","BASENAME":"Gulf","GEOID":"12045"}},{"type":"Feature","geometry":{"type":"Polygon","coordinates":[[[-81.42455,28.01248],[-81.4386,28.03322],[-81.45879,28.03972],[-81.45745,28.05508],[-81.4399,28.05814],[-81.42804,28.03935],[-81.3946,28.02843],[-81.379,28.01161],[-81.37581,28.02949],[-81.36255,28.04059],[-81.3655,28.06789],[-81.34648,28.06933],[-81.34642,28.0847],[-81.45576,28.08489],[-81.45621,28.14316],[-81.52423,28.1428],[-81.52408,28.20101],[-81.55746,28.25936],[-81.65719,28.25922],[-81.65727,28.3471],[-81.79073,28.34641],[-81.79089,28.36184],[-81.85762,28.36187],[-81.85751,28.34596],[-81.95764,28.34518],[-81.9578,28.30889],[-81.9857,28.3053],[-81.9957,28.31883],[-82.01562,28.32365],[-82.05461,28.31408],[-82.05553,28.25893],[-82.10621,28.25924],[-82.10624,28.25024],[-82.10585,28.1718],[-82.05624,28.17171],[-82.05435,27.64638],[-81.13253,27.64741],[-81.13184,27.66151],[-81.14513,27.67326],[-81.14581,27.71031],[-81.16738,27.72339],[-81.16501,27.74233],[-81.17866,27.7521],[-81.17301,27.76091],[-81.18747,27.77498],[-81.20798,27.82098],[-81.23112,27.84284],[-81.30186,27.86208],[-81.31491,27.90124],[-81.3087,27.92188],[-81.34674,27.93675],[-81.33823,27.9392],[-81.33682,27.94991],[-81.3765,27.97825],[-81.38686,28.00354],[-81.4156,27.99817],[-81.42455,28.01248]]]},"properties":{"NAME":"Polk County","BASENAME":"Polk","GEOID":"12105"}},{"type":"Feature","geometry":{"type":"MultiPolygon","coordinates":[[[[-82.93733,29.5912],[-82.95549,29.58611],[-82.97216,29.60897],[-82.97305,29.62428],[-82.95635,29.63957],[-82.95182,29.65981],[-82.95922,29.67047],[-82.95738,29.7005],[-82.93697,29.70323],[-82.95659,29.71872],[-82.94346,29.71643],[-82.94989,29.72557],[-82.93866,29.74968],[-82.94968,29.75792],[-82.93678,29.78466],[-82.91999,29.79522],[-82.93556,29.80808],[-82.92061,29.82414],[-83.31886,29.82262],[-83.31946,29.77833],[-83.34568,29.74349],[-83.35074,29.6953],[-83.36522,29.67634],[-83.36296,29.66852],[-83.39963,29.67397],[-83.41544,29.66554],[-83.57541,29.527],[-83.57031,29.48179],[-83.55426,29.43679],[-83.52422,29.39936],[-83.43566,29.3497],[-83.40251,29.31692],[-83.35723,29.2917],[-83.34618,29.24187],[-83.16482,29.28916],[-83.14203,29.32259],[-83.11295,29.31814],[-83.0988,29.33686],[-83.09039,29.33275],[-83.06167,29.34837],[-83.07205,29.35386],[-83.06225,29.36423],[-83.0656,29.37266],[-83.02325,29.39856],[-83.02688,29.41895],[-83.01583,29.42141],[-83.02118,29.4312],[-83.00051,29.46265],[-82.9845,29.46991],[-82.98288,29.51544],[-82.9694,29.52232],[-82.97735,29.53989],[-82.9479,29.55753],[-82.93733,29.5912]]],[[[-82.91871,29.82408],[-82.91231,29.82077],[-82.90396,29.82429],[-82.91871,29.82408]]]]},"properties":{"NAME":"Dixie County","BASENAME":"Dixie","GEOID":"12029"}},{"type":"Feature","geometry":{"type":"Polygon","coordinates":[[[-83.82191,30.30749],[-83.46877,30.30421],[-83.46927,30.26035],[-83.23936,30.26041],[-83.23301,30.29202],[-83.20992,30.31188],[-83.21255,30.34585],[-83.19025,30.35188],[-83.19287,30.37403],[-83.17097,30.38523],[-83.18028,30.41054],[-83.19486,30.41696],[-83.20616,30.41214],[-83.20964,30.42114],[-83.22221,30.42353],[-83.21772,30.46406],[-83.24377,30.47313],[-83.24056,30.50593],[-83.24612,30.5126],[-83.23894,30.51802],[-83.24968,30.53236],[-83.24715,30.5408],[-83.26085,30.55296],[-83.25581,30.56046],[-83.26259,30.58262],[-83.25648,30.58694],[-83.27261,30.62769],[-83.61172,30.65126],[-83.61212,30.63874],[-83.6044,30.63824],[-83.60419,30.58192],[-83.62073,30.58198],[-83.62119,30.56735],[-83.63734,30.56747],[-83.63741,30.55267],[-83.67112,30.55286],[-83.67107,30.53802],[-83.70429,30.53809],[-83.70436,30.52302],[-83.72958,30.51925],[-83.73651,30.50234],[-83.72693,30.48799],[-83.72172,30.43435],[-83.7507,30.40869],[-83.75767,30.38515],[-83.78319,30.37886],[-83.79033,30.3903],[-83.80449,30.37713],[-83.80757,30.34876],[-83.78759,30.32847],[-83.79254,30.31919],[-83.81551,30.31735],[-83.82191,30.30749]]]},"properties":{"NAME":"Madison County","BASENAME":"Madison","GEOID":"12079"}},{"type":"Feature","geometry":{"type":"Polygon","coordinates":[[[-81.65727,28.3471],[-81.65719,28.25922],[-81.55746,28.25936],[-81.52408,28.20101],[-81.52423,28.1428],[-81.45621,28.14316],[-81.45576,28.08489],[-81.34642,28.0847],[-81.34648,28.06933],[-81.3655,28.06789],[-81.36255,28.04059],[-81.37581,28.02949],[-81.37885,28.01167],[-81.3946,28.02843],[-81.42804,28.03935],[-81.4411,28.05874],[-81.45745,28.05508],[-81.45882,28.03978],[-81.4386,28.03322],[-81.41589,27.99825],[-81.38686,28.00354],[-81.3765,27.97825],[-81.33682,27.94991],[-81.33823,27.9392],[-81.34674,27.93675],[-81.30887,27.92208],[-81.31483,27.9006],[-81.30186,27.86208],[-81.23112,27.84284],[-81.20798,27.82098],[-81.18747,27.77498],[-81.17301,27.76091],[-81.17866,27.7521],[-81.16501,27.74233],[-81.16738,27.72339],[-81.14581,27.71031],[-81.14434,27.66972],[-81.13104,27.65931],[-81.13247,27.64747],[-81.14216,27.64324],[-80.87315,27.64229],[-80.88157,27.82251],[-80.86888,27.82252],[-80.86289,28.34748],[-81.65727,28.3471]]]},"properties":{"NAME":"Osceola County","BASENAME":"Osceola","GEOID":"12097"}},{"type":"Feature","geometry":{"type":"Polygon","coordinates":[[[-82.79258,29.58468],[-82.93733,29.5912],[-82.9479,29.55753],[-82.97735,29.53989],[-82.9694,29.52232],[-82.98288,29.51544],[-82.9845,29.46991],[-83.00051,29.46265],[-83.02118,29.4312],[-83.01583,29.42141],[-83.02688,29.41895],[-83.02325,29.39856],[-83.0656,29.37266],[-83.06225,29.36423],[-83.07205,29.35386],[-83.06167,29.34837],[-83.09039,29.33275],[-83.0988,29.33686],[-83.11295,29.31814],[-83.14203,29.32259],[-83.16482,29.28916],[-83.34618,29.24187],[-83.31523,29.19313],[-83.26208,29.15572],[-83.26386,29.11445],[-83.25374,29.0765],[-83.22056,29.01949],[-83.18791,28.98657],[-82.76157,28.99209],[-82.71664,29.02816],[-82.68981,29.03396],[-82.60747,29.01044],[-82.596,29.02957],[-82.57697,29.02806],[-82.53559,29.04486],[-82.53486,29.21468],[-82.40324,29.21562],[-82.40662,29.48505],[-82.55677,29.48005],[-82.5572,29.53753],[-82.65633,29.53562],[-82.6563,29.56481],[-82.75646,29.56247],[-82.75687,29.57768],[-82.79258,29.58468]]]},"properties":{"NAME":"Levy County","BASENAME":"Levy","GEOID":"12075"}},{"type":"Feature","geometry":{"type":"Polygon","coordinates":[[[-82.79479,30.32017],[-82.7996,30.34422],[-82.81058,30.33701],[-82.83212,30.34677],[-82.84432,30.34094],[-82.85216,30.35714],[-82.88513,30.36532],[-82.89345,30.3741],[-82.88905,30.38616],[-82.90588,30.38808],[-82.90856,30.38007],[-82.94877,30.401],[-82.95597,30.41353],[-82.98286,30.41904],[-82.99776,30.43067],[-83.00461,30.43182],[-83.00793,30.42247],[-83.03455,30.43088],[-83.07057,30.42447],[-83.08239,30.44287],[-83.1221,30.43261],[-83.13522,30.41864],[-83.15521,30.41722],[-83.16962,30.38618],[-83.19287,30.37403],[-83.19025,30.35188],[-83.21255,30.34585],[-83.20992,30.31188],[-83.23301,30.29202],[-83.23695,30.26163],[-83.25307,30.2551],[-83.25079,30.24757],[-83.24252,30.24823],[-83.25203,30.2341],[-83.23968,30.22674],[-83.24936,30.18647],[-83.2316,30.16684],[-83.2387,30.15276],[-83.22513,30.13799],[-83.22636,30.11462],[-83.18436,30.09412],[-83.16246,30.11002],[-83.13356,30.09692],[-83.1192,30.10497],[-83.11191,30.09116],[-83.06955,30.08125],[-83.06768,30.06633],[-83.01329,30.03212],[-83.00131,30.00879],[-82.97942,30.00739],[-82.96385,29.99454],[-82.9524,29.95936],[-82.93181,29.95781],[-82.92617,29.94989],[-82.92055,29.93007],[-82.92588,29.92133],[-82.9121,29.90484],[-82.91555,29.89179],[-82.909,29.88949],[-82.89787,29.90144],[-82.8842,29.88233],[-82.86327,29.91105],[-82.83147,29.91281],[-82.81442,29.92983],[-82.80048,29.93213],[-82.78576,29.95488],[-82.76221,29.96438],[-82.75858,29.97571],[-82.76041,29.98621],[-82.79398,29.9862],[-82.79479,30.32017]]]},"properties":{"NAME":"Suwannee County","BASENAME":"Suwannee","GEOID":"12121"}},{"type":"Feature","geometry":{"type":"Polygon","coordinates":[[[-84.62013,29.61327],[-84.58868,29.64074],[-84.47785,29.68557],[-84.44561,29.71216],[-84.41995,29.74696],[-84.41155,29.74564],[-84.29688,29.97256],[-84.34884,29.96908],[-84.42686,29.98591],[-84.45455,29.97133],[-84.45968,29.99338],[-84.4702,30.0025],[-84.48709,29.98846],[-84.51413,29.98908],[-84.5121,29.98204],[-84.5204,29.98048],[-84.52405,30.00402],[-84.54242,30.00244],[-84.54887,30.00709],[-84.54445,30.01103],[-85.00763,30.01388],[-85.02544,29.9714],[-85.01794,29.95097],[-85.02647,29.95284],[-85.02947,29.9313],[-85.0413,29.93106],[-85.05436,29.90186],[-85.04136,29.87678],[-85.03221,29.829],[-85.01969,29.81987],[-85.02053,29.80737],[-85.04008,29.77935],[-85.06476,29.78703],[-85.07822,29.76862],[-85.1094,29.77679],[-85.20623,29.71119],[-85.2255,29.67794],[-85.21146,29.49706],[-85.17712,29.48516],[-85.12383,29.45074],[-85.07043,29.43698],[-85.00583,29.44064],[-84.88946,29.4737],[-84.79732,29.52205],[-84.68935,29.56264],[-84.62013,29.61327]]]},"properties":{"NAME":"Franklin County","BASENAME":"Franklin","GEOID":"12037"}},{"type":"Feature","geometry":{"type":"Polygon","coordinates":[[[-85.38966,30.24899],[-85.38395,30.56686],[-85.48636,30.56757],[-85.48797,30.43666],[-85.8535,30.44062],[-85.88398,30.41025],[-85.90764,30.40582],[-85.92393,30.41638],[-85.94025,30.40862],[-85.96497,30.41071],[-85.99274,30.38932],[-86.00077,30.1036],[-85.8935,30.04529],[-85.80356,29.97816],[-85.70979,29.93584],[-85.64587,29.87591],[-85.58962,29.83756],[-85.57024,29.72102],[-85.52265,29.61313],[-85.48819,29.56817],[-85.45334,29.53785],[-85.37285,29.50701],[-85.44034,29.78811],[-85.43433,29.89999],[-85.38846,29.92608],[-85.38966,30.24899]]]},"properties":{"NAME":"Bay County","BASENAME":"Bay","GEOID":"12005"}},{"type":"Feature","geometry":{"type":"Polygon","coordinates":[[[-80.88157,27.82251],[-80.87316,27.6423],[-80.77805,27.64319],[-80.77717,27.55873],[-80.26354,27.55678],[-80.32811,27.75031],[-80.38507,27.86136],[-80.49108,27.8546],[-80.50907,27.82206],[-80.88157,27.82251]]]},"properties":{"NAME":"Indian River County","BASENAME":"Indian River","GEOID":"12061"}},{"type":"Feature","geometry":{"type":"Polygon","coordinates":[[[-79.9966,26.88223],[-80.02275,26.97039],[-80.14176,26.97094],[-80.14201,26.95664],[-80.88564,26.95892],[-80.88183,26.3338],[-80.29699,26.33436],[-80.29705,26.35555],[-80.20408,26.32782],[-80.01528,26.32096],[-80.00615,26.43281],[-79.98248,26.56925],[-79.97489,26.6975],[-79.97965,26.75034],[-79.97431,26.79241],[-79.9966,26.88223]]]},"properties":{"NAME":"Palm Beach County","BASENAME":"Palm Beach","GEOID":"12099"}},{"type":"Feature","geometry":{"type":"Polygon","coordinates":[[[-85.01317,30.6061],[-84.93252,30.60639],[-84.90932,30.61859],[-84.88922,30.66159],[-84.85792,30.69841],[-84.89612,30.75059],[-84.91432,30.75359],[-84.93742,30.82089],[-84.92567,30.84268],[-84.93982,30.87259],[-84.93442,30.88359],[-84.98313,30.93479],[-84.98113,30.96339],[-85.00573,30.97591],[-85.0019,31.00068],[-85.49799,30.99693],[-85.52921,30.97444],[-85.5304,30.93912],[-85.54774,30.93219],[-85.57557,30.8986],[-85.59488,30.85948],[-85.59993,30.83055],[-85.48228,30.82951],[-85.48272,30.78589],[-85.43227,30.78546],[-85.43478,30.56756],[-85.17189,30.56434],[-85.16771,30.60803],[-85.01317,30.6061]]]},"properties":{"NAME":"Jackson County","BASENAME":"Jackson","GEOID":"12063"}},{"type":"Feature","geometry":{"type":"Polygon","coordinates":[[[-82.95941,29.68508],[-82.95182,29.65981],[-82.95635,29.63957],[-82.9728,29.62523],[-82.97244,29.60982],[-82.95216,29.58447],[-82.94181,29.59322],[-82.85661,29.59132],[-82.85652,29.58424],[-82.77291,29.58488],[-82.77302,29.57765],[-82.75687,29.57768],[-82.75646,29.56247],[-82.6563,29.56481],[-82.65855,29.83014],[-82.69449,29.8344],[-82.73294,29.85647],[-82.75285,29.88021],[-82.75365,29.8935],[-82.7693,29.89771],[-82.77038,29.92811],[-82.80851,29.93308],[-82.83147,29.91281],[-82.86258,29.9114],[-82.87934,29.88824],[-82.87562,29.86653],[-82.8884,29.85012],[-82.89287,29.82746],[-82.92383,29.82337],[-82.93536,29.80946],[-82.91971,29.79624],[-82.94762,29.76611],[-82.94971,29.75441],[-82.93841,29.74755],[-82.94989,29.72557],[-82.94377,29.71575],[-82.95659,29.71872],[-82.93697,29.70323],[-82.95571,29.70255],[-82.95941,29.68508]]]},"properties":{"NAME":"Gilchrist County","BASENAME":"Gilchrist","GEOID":"12041"}},{"type":"Feature","geometry":{"type":"Polygon","coordinates":[[[-80.09178,25.72111],[-80.06962,25.75566],[-80.06289,25.97681],[-80.29519,25.97057],[-80.29497,25.95677],[-80.68002,25.95686],[-80.68004,25.97875],[-80.87293,25.97943],[-80.87319,25.36399],[-80.86219,25.36419],[-80.85817,25.17661],[-80.83822,25.17479],[-80.82574,25.16055],[-80.80956,25.16905],[-80.81442,25.18274],[-80.79786,25.18122],[-80.80106,25.14356],[-80.7958,25.16211],[-80.78221,25.16527],[-80.77275,25.15059],[-80.77709,25.13742],[-80.76596,25.16228],[-80.74293,25.14265],[-80.72155,25.1455],[-80.7472,25.15871],[-80.74592,25.16539],[-80.72991,25.15976],[-80.7317,25.16744],[-80.72308,25.16155],[-80.72721,25.15288],[-80.71733,25.15539],[-80.70406,25.14042],[-80.69785,25.16294],[-80.68024,25.17456],[-80.67807,25.16394],[-80.67169,25.17458],[-80.66983,25.16704],[-80.65306,25.16287],[-80.67309,25.13859],[-80.65228,25.14658],[-80.65641,25.15429],[-80.64752,25.1715],[-80.63363,25.17633],[-80.66244,25.17498],[-80.65163,25.19248],[-80.60492,25.20273],[-80.60958,25.18285],[-80.62519,25.18255],[-80.61445,25.17578],[-80.58384,25.20056],[-80.58237,25.21055],[-80.56548,25.20958],[-80.57126,25.19853],[-80.57723,25.20222],[-80.56539,25.19265],[-80.55855,25.1993],[-80.56195,25.21219],[-80.54919,25.21405],[-80.53584,25.19892],[-80.53963,25.21351],[-80.51918,25.22238],[-80.49533,25.1995],[-80.5006,25.21119],[-80.48722,25.20713],[-80.49418,25.22712],[-80.48247,25.22488],[-80.44421,25.2442],[-80.43627,25.23576],[-80.41887,25.23631],[-80.41095,25.25347],[-80.39493,25.25354],[-80.39508,25.27294],[-80.37915,25.28786],[-80.37902,25.30589],[-80.37212,25.31022],[-80.26547,25.3543],[-80.25022,25.33937],[-80.18387,25.34818],[-80.15291,25.39466],[-80.1391,25.4331],[-80.11143,25.44605],[-80.09552,25.47103],[-80.09693,25.49961],[-80.11557,25.52666],[-80.104,25.56187],[-80.10777,25.60663],[-80.09178,25.72111]]]},"properties":{"NAME":"Miami-Dade County","BASENAME":"Miami-Dade","GEOID":"12086"}},{"type":"Feature","geometry":{"type":"Polygon","coordinates":[[[-81.43009,30.25224],[-81.31793,30.25294],[-81.33063,30.29948],[-81.33538,30.36129],[-81.32156,30.37857],[-81.3169,30.40772],[-81.33229,30.43304],[-81.35357,30.44666],[-81.35804,30.50024],[-81.44211,30.50914],[-81.4844,30.53744],[-81.49958,30.56379],[-81.51401,30.56734],[-81.52381,30.55634],[-81.51995,30.54364],[-81.52631,30.53118],[-81.54302,30.52389],[-81.55093,30.54303],[-81.56781,30.53664],[-81.58654,30.54523],[-81.58508,30.56632],[-81.61021,30.55438],[-81.61418,30.56305],[-81.60146,30.56767],[-81.61123,30.57684],[-81.60461,30.58486],[-81.61506,30.58014],[-81.62481,30.58623],[-81.65052,30.57612],[-81.66373,30.55084],[-81.67394,30.56619],[-81.69552,30.56317],[-81.69795,30.56967],[-81.70438,30.5636],[-81.722,30.57185],[-81.72659,30.55958],[-81.73631,30.55709],[-81.73827,30.53469],[-81.76375,30.53492],[-81.76532,30.51844],[-81.78162,30.50334],[-81.79492,30.50541],[-81.80953,30.48454],[-82.04932,30.27343],[-82.04941,30.18693],[-81.67963,30.19049],[-81.69052,30.17194],[-81.69212,30.14474],[-81.68022,30.12124],[-81.61231,30.13294],[-81.56779,30.11779],[-81.53901,30.11994],[-81.53871,30.10375],[-81.43465,30.10528],[-81.43693,30.25233],[-81.43009,30.25224]]]},"properties":{"NAME":"Duval County","BASENAME":"Duval","GEOID":"12031"}},{"type":"Feature","geometry":{"type":"Polygon","coordinates":[[[-80.19084,25.97323],[-80.06289,25.97681],[-80.04654,26.13855],[-80.01528,26.32096],[-80.20408,26.32782],[-80.29705,26.35555],[-80.29699,26.33436],[-80.88128,26.33381],[-80.87293,25.97943],[-80.68004,25.97875],[-80.68002,25.95686],[-80.29497,25.95677],[-80.29519,25.97057],[-80.19084,25.97323]]]},"properties":{"NAME":"Broward County","BASENAME":"Broward","GEOID":"12011"}},{"type":"Feature","geometry":{"type":"Polygon","coordinates":[[[-83.36889,30.15287],[-83.37089,29.88793],[-83.35299,29.88786],[-83.35286,29.82222],[-82.89287,29.82746],[-82.8884,29.85012],[-82.87562,29.86653],[-82.87603,29.8844],[-82.89009,29.88492],[-82.89309,29.88957],[-82.88516,29.89158],[-82.89787,29.90144],[-82.909,29.88949],[-82.91555,29.89179],[-82.9121,29.90484],[-82.92588,29.92133],[-82.92055,29.93007],[-82.92617,29.94989],[-82.93181,29.95781],[-82.9524,29.95936],[-82.96385,29.99454],[-82.97942,30.00739],[-83.00131,30.00879],[-83.01329,30.03212],[-83.06768,30.06633],[-83.06955,30.08125],[-83.11191,30.09116],[-83.11645,30.10407],[-83.13356,30.09692],[-83.16246,30.11002],[-83.18436,30.09412],[-83.22566,30.11332],[-83.22513,30.13799],[-83.2387,30.15276],[-83.2316,30.16684],[-83.25,30.19049],[-83.23968,30.22674],[-83.25271,30.23565],[-83.24252,30.24823],[-83.25292,30.25061],[-83.24725,30.26067],[-83.36726,30.26044],[-83.36889,30.15287]]]},"properties":{"NAME":"Lafayette County","BASENAME":"Lafayette","GEOID":"12067"}},{"type":"Feature","geometry":{"type":"Polygon","coordinates":[[[-81.8189,28.36171],[-81.79089,28.36184],[-81.79073,28.34641],[-81.65727,28.3471],[-81.6572,28.56983],[-81.6481,28.58448],[-81.6572,28.59257],[-81.6586,28.76644],[-81.64651,28.76987],[-81.64766,28.78461],[-81.41468,28.78556],[-81.41629,28.82557],[-81.38296,28.85199],[-81.36305,28.87919],[-81.36557,28.88903],[-81.35717,28.88715],[-81.35264,28.8971],[-81.36017,28.90665],[-81.34972,28.93964],[-81.35944,28.9448],[-81.35396,28.94957],[-81.35892,28.95594],[-81.37089,28.95826],[-81.3559,28.98705],[-81.37567,28.994],[-81.3722,28.9985],[-81.40285,29.03247],[-81.45529,29.06307],[-81.45846,29.09383],[-81.50205,29.0978],[-81.50453,29.12371],[-81.53175,29.1772],[-81.55396,29.18465],[-81.5609,29.20019],[-81.61226,29.20283],[-81.64192,29.27677],[-81.6387,29.04776],[-81.6592,29.04776],[-81.6587,28.96035],[-81.95419,28.96005],[-81.95764,28.34518],[-81.85751,28.34596],[-81.85762,28.36187],[-81.8189,28.36171]]]},"properties":{"NAME":"Lake County","BASENAME":"Lake","GEOID":"12069"}},{"type":"Feature","geometry":{"type":"Polygon","coordinates":[[[-82.28702,30.14173],[-82.04943,30.14314],[-82.04996,30.36247],[-82.06618,30.35576],[-82.12636,30.36832],[-82.16178,30.35711],[-82.19279,30.37907],[-82.21086,30.42538],[-82.20124,30.48511],[-82.22507,30.50769],[-82.2404,30.53777],[-82.23419,30.55765],[-82.21468,30.56856],[-82.45979,30.58427],[-82.45836,30.13645],[-82.28702,30.14173]]]},"properties":{"NAME":"Baker County","BASENAME":"Baker","GEOID":"12003"}},{"type":"Feature","geometry":{"type":"Polygon","coordinates":[[[-82.25996,28.17142],[-82.10585,28.1718],[-82.10621,28.25924],[-82.05553,28.25893],[-82.05469,28.4784],[-82.25329,28.47849],[-82.25344,28.43482],[-82.87494,28.43079],[-82.89736,28.35701],[-82.94676,28.33612],[-82.98381,28.30609],[-83.01094,28.264],[-83.02224,28.21482],[-83.01875,28.17098],[-82.25996,28.17142]]]},"properties":{"NAME":"Pasco County","BASENAME":"Pasco","GEOID":"12101"}},{"type":"Feature","geometry":{"type":"Polygon","coordinates":[[[-82.3117,28.96039],[-82.29709,28.94835],[-82.27358,28.89722],[-82.24253,28.87681],[-82.23195,28.85658],[-82.18364,28.82363],[-82.17931,28.80332],[-82.16951,28.79615],[-82.18793,28.77776],[-82.18481,28.76177],[-82.20775,28.75662],[-82.24908,28.71777],[-82.2486,28.70149],[-82.2741,28.6546],[-82.25684,28.64887],[-82.26016,28.63504],[-82.24595,28.62677],[-82.21195,28.57405],[-82.19167,28.57493],[-82.16627,28.56366],[-82.15616,28.57335],[-82.13763,28.56525],[-82.12864,28.54494],[-82.10919,28.54366],[-82.09545,28.52384],[-82.07034,28.53192],[-82.05624,28.52339],[-82.05582,28.31279],[-82.02037,28.32384],[-81.9957,28.31883],[-81.9857,28.3053],[-81.9578,28.30889],[-81.95419,28.96005],[-82.3117,28.96039]]]},"properties":{"NAME":"Sumter County","BASENAME":"Sumter","GEOID":"12119"}},{"type":"Feature","geometry":{"type":"Polygon","coordinates":[[[-84.93252,30.60649],[-84.88332,30.60559],[-84.88262,30.53309],[-84.81582,30.53309],[-84.81562,30.51849],[-84.78181,30.51869],[-84.78111,30.45979],[-84.7141,30.4604],[-84.71412,30.4172],[-84.68052,30.41727],[-84.68063,30.38797],[-84.64641,30.38828],[-84.64794,30.39436],[-84.6249,30.40911],[-84.5804,30.4171],[-84.56146,30.43791],[-84.53033,30.43988],[-84.49447,30.46052],[-84.46051,30.45591],[-84.43481,30.46611],[-84.42178,30.46339],[-84.40293,30.47577],[-84.3954,30.49053],[-84.40504,30.50796],[-84.39242,30.51484],[-84.37838,30.57347],[-84.34086,30.60021],[-84.33217,30.5964],[-84.32476,30.61811],[-84.30058,30.64007],[-84.30376,30.6773],[-84.28256,30.68533],[-84.86469,30.71154],[-84.85834,30.69662],[-84.88922,30.66159],[-84.90522,30.62259],[-84.93252,30.60649]]]},"properties":{"NAME":"Gadsden County","BASENAME":"Gadsden","GEOID":"12039"}},{"type":"Feature","geometry":{"type":"Polygon","coordinates":[[[-81.77169,27.03391],[-81.56262,27.03384],[-81.56406,27.34064],[-82.05575,27.33826],[-82.05751,27.03212],[-81.77169,27.03391]]]},"properties":{"NAME":"DeSoto County","BASENAME":"DeSoto","GEOID":"12027"}},{"type":"Feature","geometry":{"type":"Polygon","coordinates":[[[-81.26768,27.1211],[-81.26722,27.03247],[-81.33301,27.03237],[-81.33301,27.03962],[-81.3418,27.03973],[-81.34266,27.03232],[-81.56253,27.03369],[-81.56575,26.7696],[-81.45945,26.76886],[-81.45933,26.78347],[-81.44914,26.78349],[-81.43492,26.78346],[-81.43493,26.76877],[-80.94532,26.7691],[-80.88564,26.95892],[-80.87024,27.15227],[-80.87867,27.16922],[-80.89785,27.16596],[-80.91013,27.17477],[-80.9064,27.18905],[-80.96182,27.21077],[-81.16914,27.20959],[-81.16828,27.12173],[-81.26768,27.1211]]]},"properties":{"NAME":"Glades County","BASENAME":"Glades","GEOID":"12043"}},{"type":"Feature","geometry":{"type":"Polygon","coordinates":[[[-81.56656,26.71338],[-81.56376,26.51333],[-81.27177,26.51707],[-81.26824,26.25307],[-80.87971,26.25931],[-80.88564,26.95892],[-80.94532,26.7691],[-81.43493,26.76877],[-81.43492,26.78346],[-81.45933,26.78347],[-81.45945,26.76886],[-81.56575,26.7696],[-81.56656,26.71338]]]},"properties":{"NAME":"Hendry County","BASENAME":"Hendry","GEOID":"12051"}},{"type":"Feature","geometry":{"type":"Polygon","coordinates":[[[-81.62488,25.80248],[-80.8731,25.80538],[-80.87971,26.25931],[-81.26824,26.25307],[-81.27177,26.51707],[-81.56376,26.51333],[-81.56218,26.42263],[-81.65951,26.42108],[-81.6579,26.31756],[-81.81902,26.31624],[-81.81912,26.33042],[-82.24495,26.32983],[-82.20009,26.30136],[-82.12479,26.27571],[-82.06357,26.27225],[-82.00546,26.28443],[-81.98529,26.21318],[-81.96328,26.04973],[-81.91843,25.95273],[-81.90498,25.89415],[-81.84821,25.80078],[-81.62488,25.80248]]]},"properties":{"NAME":"Collier County","BASENAME":"Collier","GEOID":"12021"}},{"type":"Feature","geometry":{"type":"MultiPolygon","coordinates":[[[[-81.84821,25.80078],[-81.80567,25.73411],[-81.76172,25.69721],[-81.72103,25.67974],[-81.67974,25.67256],[-81.62016,25.67364],[-81.57623,25.68604],[-81.51902,25.65694],[-81.50869,25.62361],[-81.4876,25.59205],[-81.42541,25.5516],[-81.38477,25.49701],[-81.358,25.42755],[-81.3252,25.39062],[-81.31491,25.35155],[-81.34024,25.26405],[-81.3423,25.22483],[-81.29506,25.09793],[-81.26225,25.05088],[-81.18858,24.9948],[-81.17035,24.96214],[-81.21196,24.98033],[-81.25486,24.98659],[-81.35038,24.97048],[-81.40548,24.9785],[-81.48849,24.96635],[-81.66013,24.88329],[-81.77824,24.81538],[-81.81421,24.80639],[-81.89429,24.76365],[-81.96754,24.75278],[-82.02695,24.72572],[-82.09749,24.74578],[-82.17537,24.74447],[-82.22676,24.72672],[-82.26277,24.6989],[-82.30445,24.6439],[-82.3265,24.58373],[-82.21545,24.58376],[-82.22229,24.557],[-82.21417,24.52742],[-82.19491,24.507],[-82.16949,24.4977],[-82.10033,24.5],[-82.06717,24.52372],[-82.03427,24.4825],[-81.97441,24.47121],[-81.97977,24.43166],[-81.96732,24.41196],[-81.94644,24.39935],[-81.84976,24.40588],[-81.81352,24.41764],[-81.78899,24.43948],[-81.78181,24.46093],[-81.79236,24.49561],[-81.77081,24.49687],[-81.77369,24.47273],[-81.76287,24.44964],[-81.73011,24.4307],[-81.61026,24.45431],[-81.58583,24.47109],[-81.55145,24.47803],[-81.52567,24.50043],[-81.51886,24.52653],[-81.52785,24.55328],[-81.51461,24.56476],[-81.46509,24.55285],[-81.42064,24.57057],[-81.3748,24.57149],[-81.26463,24.59923],[-81.23991,24.61706],[-81.20426,24.63119],[-81.16939,24.63462],[-81.14769,24.64906],[-81.12062,24.63568],[-81.05974,24.63586],[-81.02258,24.66527],[-80.99979,24.66891],[-80.91891,24.71307],[-80.88696,24.71968],[-80.85223,24.74893],[-80.77109,24.76595],[-80.74511,24.78888],[-80.64043,24.83843],[-80.58545,24.88933],[-80.53816,24.91273],[-80.51434,24.94063],[-80.47808,24.94843],[-80.45336,24.9637],[-80.4391,24.99799],[-80.41255,25.01023],[-80.3965,25.02821],[-80.39043,25.05719],[-80.35778,25.0729],[-80.33332,25.0992],[-80.25966,25.23055],[-80.18532,25.33851],[-80.18387,25.34818],[-80.25022,25.33937],[-80.26547,25.3543],[-80.36254,25.31421],[-80.37902,25.30589],[-80.37915,25.28786],[-80.39508,25.27294],[-80.39493,25.25354],[-80.41095,25.25347],[-80.41887,25.23631],[-80.43627,25.23576],[-80.44421,25.2442],[-80.48247,25.22488],[-80.49418,25.22712],[-80.48722,25.20713],[-80.5006,25.21119],[-80.49533,25.1995],[-80.51918,25.22238],[-80.53963,25.21351],[-80.53584,25.19892],[-80.54919,25.21405],[-80.56195,25.21219],[-80.55855,25.1993],[-80.56539,25.19265],[-80.57723,25.20222],[-80.57126,25.19853],[-80.56548,25.20958],[-80.58237,25.21055],[-80.58384,25.20056],[-80.61445,25.17578],[-80.62519,25.18255],[-80.60958,25.18285],[-80.60492,25.20273],[-80.65163,25.19248],[-80.66244,25.17498],[-80.63361,25.17647],[-80.64586,25.17395],[-80.65641,25.15429],[-80.65228,25.14658],[-80.65971,25.14243],[-80.67511,25.14027],[-80.65306,25.16287],[-80.66983,25.16704],[-80.67169,25.17458],[-80.67807,25.16394],[-80.68024,25.17456],[-80.69785,25.16294],[-80.70629,25.13981],[-80.71157,25.15195],[-80.72721,25.15288],[-80.72308,25.16155],[-80.7317,25.16744],[-80.72991,25.15976],[-80.74592,25.16539],[-80.7472,25.15871],[-80.72155,25.1455],[-80.74293,25.14265],[-80.76596,25.16228],[-80.77802,25.1377],[-80.77262,25.14983],[-80.78221,25.16527],[-80.7958,25.16211],[-80.80053,25.14299],[-80.79622,25.18042],[-80.81442,25.18274],[-80.80956,25.16905],[-80.82574,25.16055],[-80.83822,25.17479],[-80.85817,25.17661],[-80.86219,25.36419],[-80.87319,25.36399],[-80.8731,25.80538],[-81.84821,25.80078]]],[[[-83.10874,24.62949],[-83.10353,24.57996],[-83.08256,24.53687],[-83.04355,24.49857],[-82.99988,24.47698],[-82.99974,24.58392],[-82.94329,24.56893],[-82.91412,24.57597],[-82.87207,24.56222],[-82.8485,24.5676],[-82.82818,24.58377],[-82.65668,24.58371],[-82.63991,24.65491],[-82.65508,24.71332],[-82.67998,24.74851],[-82.70978,24.77312],[-82.77567,24.79817],[-82.86889,24.79809],[-82.97906,24.77605],[-83.04111,24.74091],[-83.08845,24.69205],[-83.10874,24.62949]]]]},"properties":{"NAME":"Monroe County","BASENAME":"Monroe","GEOID":"12087"}},{"type":"Feature","geometry":{"type":"Polygon","coordinates":[[[-86.79358,30.63674],[-86.80337,30.23495],[-86.63841,30.24629],[-86.52805,30.23189],[-86.39964,30.22696],[-86.38865,30.99418],[-86.78569,30.99698],[-86.79358,30.63674]]]},"properties":{"NAME":"Okaloosa County","BASENAME":"Okaloosa","GEOID":"12091"}},{"type":"Feature","geometry":{"type":"Polygon","coordinates":[[[-80.8993,28.79097],[-80.66346,28.79059],[-80.90684,29.14471],[-81.04571,29.43246],[-81.11102,29.4269],[-81.15588,29.41095],[-81.15008,29.26596],[-81.41729,29.26116],[-81.42272,29.40056],[-81.43454,29.39929],[-81.45069,29.37852],[-81.6809,29.32443],[-81.67213,29.30527],[-81.65009,29.29314],[-81.61226,29.20283],[-81.5609,29.20019],[-81.55396,29.18465],[-81.53175,29.1772],[-81.50453,29.12371],[-81.50205,29.0978],[-81.45846,29.09383],[-81.45529,29.06307],[-81.40285,29.03247],[-81.3722,28.9985],[-81.37567,28.994],[-81.3559,28.98705],[-81.3709,28.95854],[-81.35892,28.95594],[-81.35396,28.94957],[-81.35944,28.9448],[-81.34964,28.93929],[-81.36017,28.90665],[-81.35264,28.8971],[-81.35717,28.88715],[-81.36514,28.88965],[-81.36694,28.87923],[-81.36017,28.8714],[-81.36465,28.86569],[-81.35212,28.86232],[-81.35803,28.8478],[-81.32047,28.83453],[-81.226,28.83263],[-81.21372,28.80421],[-81.19737,28.79192],[-81.181,28.79661],[-81.17894,28.78189],[-81.13617,28.79222],[-81.14033,28.79624],[-81.12929,28.79945],[-81.11978,28.82616],[-81.07608,28.81932],[-81.05395,28.77754],[-81.06111,28.75],[-81.01665,28.69304],[-81.02129,28.67425],[-81.00723,28.66345],[-81.00106,28.64001],[-81.0071,28.63633],[-80.99454,28.6217],[-80.98876,28.62452],[-80.98725,28.613],[-80.96445,28.61304],[-80.96789,28.7902],[-80.8993,28.79097]]]},"properties":{"NAME":"Volusia County","BASENAME":"Volusia","GEOID":"12127"}},{"type":"Feature","geometry":{"type":"Polygon","coordinates":[[[-80.22403,27.26302],[-80.13805,27.26288],[-80.21335,27.42472],[-80.2293,27.48563],[-80.26354,27.55678],[-80.67966,27.55874],[-80.67786,27.20599],[-80.28551,27.20602],[-80.28507,27.231],[-80.29299,27.24198],[-80.28531,27.24392],[-80.28477,27.26372],[-80.22403,27.26302]]]},"properties":{"NAME":"St. Lucie County","BASENAME":"St. Lucie","GEOID":"12111"}},{"type":"Feature","geometry":{"type":"Polygon","coordinates":[[[-81.93133,26.77005],[-82.20556,26.77053],[-82.22149,26.78175],[-82.26468,26.78943],[-82.46201,26.78743],[-82.43157,26.73615],[-82.43283,26.67193],[-82.42265,26.62984],[-82.35964,26.50273],[-82.33596,26.42267],[-82.29119,26.36295],[-82.24495,26.32983],[-81.81912,26.33042],[-81.81902,26.31624],[-81.6579,26.31756],[-81.65951,26.42108],[-81.56218,26.42263],[-81.56575,26.7696],[-81.93133,26.77005]]]},"properties":{"NAME":"Lee County","BASENAME":"Lee","GEOID":"12071"}},{"type":"Feature","geometry":{"type":"Polygon","coordinates":[[[-81.79723,29.83665],[-81.58121,29.84018],[-81.60761,29.90566],[-81.59874,29.94104],[-81.60487,29.9635],[-81.67824,30.01223],[-81.68888,30.02857],[-81.67997,30.11912],[-81.69212,30.14474],[-81.69052,30.17194],[-81.67963,30.19049],[-82.04941,30.18693],[-82.04924,29.71867],[-82.02892,29.71868],[-81.99451,29.74306],[-81.93943,29.7475],[-81.91419,29.7914],[-81.86199,29.80019],[-81.81243,29.83649],[-81.79723,29.83665]]]},"properties":{"NAME":"Clay County","BASENAME":"Clay","GEOID":"12019"}},{"type":"Feature","geometry":{"type":"Polygon","coordinates":[[[-81.27692,29.65244],[-81.26102,29.66908],[-81.24726,29.65909],[-81.22731,29.67054],[-81.15082,29.67109],[-81.19277,29.77833],[-81.20927,29.87525],[-81.25513,30.00024],[-81.32018,30.25292],[-81.43693,30.25233],[-81.43378,30.10554],[-81.53871,30.10375],[-81.53901,30.11994],[-81.56779,30.11779],[-81.61231,30.13294],[-81.68022,30.12124],[-81.68888,30.02857],[-81.67824,30.01223],[-81.6177,29.9766],[-81.60099,29.95602],[-81.60835,29.91171],[-81.59901,29.87542],[-81.56389,29.79806],[-81.52523,29.7595],[-81.52366,29.62243],[-81.32406,29.62561],[-81.32452,29.65354],[-81.30865,29.64206],[-81.30018,29.65098],[-81.27692,29.65244]]]},"properties":{"NAME":"St. Johns County","BASENAME":"St. Johns","GEOID":"12109"}},{"type":"Feature","geometry":{"type":"Polygon","coordinates":[[[-80.09415,27.16458],[-80.09541,27.18064],[-80.13805,27.26288],[-80.28477,27.26372],[-80.28531,27.24392],[-80.29299,27.24198],[-80.28507,27.231],[-80.28551,27.20602],[-80.67786,27.20599],[-80.67743,27.12162],[-80.88564,26.95892],[-80.14201,26.95664],[-80.14176,26.97094],[-80.02275,26.97039],[-80.0391,27.02985],[-80.09415,27.16458]]]},"properties":{"NAME":"Martin County","BASENAME":"Martin","GEOID":"12085"}},{"type":"Feature","geometry":{"type":"Polygon","coordinates":[[[-82.40677,29.43101],[-82.40324,29.21562],[-82.53486,29.21468],[-82.53512,29.04093],[-82.51644,29.04423],[-82.50813,29.03748],[-82.48187,29.05253],[-82.45857,29.04765],[-82.41866,29.01313],[-82.40164,29.019],[-82.37755,29.00071],[-82.36484,29.0024],[-82.36139,28.99351],[-82.31584,28.97327],[-82.3117,28.96039],[-81.6587,28.96035],[-81.6592,29.04776],[-81.6387,29.04776],[-81.64192,29.27677],[-81.65533,29.29967],[-81.67326,29.30664],[-81.68095,29.32643],[-81.674,29.33934],[-81.65671,29.33749],[-81.65772,29.34803],[-81.66852,29.3717],[-81.74142,29.37105],[-81.74183,29.42994],[-81.77491,29.42925],[-81.7762,29.48745],[-81.84278,29.48653],[-81.84493,29.52168],[-81.88762,29.50921],[-81.90169,29.51595],[-81.91205,29.50391],[-81.93182,29.51645],[-82.03197,29.49226],[-82.0559,29.47123],[-82.05675,29.43995],[-82.07129,29.44327],[-82.07052,29.43424],[-82.08094,29.44039],[-82.09989,29.41866],[-82.10114,29.43831],[-82.11932,29.42825],[-82.13481,29.43504],[-82.14862,29.41706],[-82.15097,29.42678],[-82.19339,29.42087],[-82.21171,29.42981],[-82.21778,29.45621],[-82.21273,29.46562],[-82.19345,29.46144],[-82.19926,29.45656],[-82.19191,29.45231],[-82.18806,29.46039],[-82.20341,29.47212],[-82.20804,29.46659],[-82.21145,29.48407],[-82.40662,29.48505],[-82.40677,29.43101]]]},"properties":{"NAME":"Marion County","BASENAME":"Marion","GEOID":"12083"}},{"type":"Feature","geometry":{"type":"Polygon","coordinates":[[[-84.04119,30.48437],[-84.04149,30.46331],[-84.07469,30.4343],[-84.07633,29.93749],[-84.06492,29.94008],[-83.99996,29.89895],[-83.99218,30.09621],[-83.96866,30.13603],[-83.97333,30.14562],[-83.96036,30.15215],[-83.9513,30.18628],[-83.92545,30.19286],[-83.91576,30.24531],[-83.90258,30.24746],[-83.87951,30.26913],[-83.83734,30.28078],[-83.82002,30.29982],[-83.81555,30.31733],[-83.79245,30.31926],[-83.78711,30.33167],[-83.80757,30.34876],[-83.80455,30.37703],[-83.79033,30.3903],[-83.78319,30.37886],[-83.75767,30.38515],[-83.7507,30.40869],[-83.72172,30.43435],[-83.73423,30.51286],[-83.72598,30.52309],[-83.70436,30.52302],[-83.70429,30.53809],[-83.67107,30.53802],[-83.67112,30.55286],[-83.63741,30.55267],[-83.63734,30.56747],[-83.62119,30.56735],[-83.62073,30.58198],[-83.60419,30.58192],[-83.6044,30.63824],[-83.61212,30.63874],[-83.61172,30.65126],[-84.00745,30.67213],[-84.00769,30.6093],[-83.99802,30.57147],[-83.97906,30.55083],[-83.98701,30.5472],[-83.97717,30.52199],[-84.04115,30.5219],[-84.04119,30.48437]]]},"properties":{"NAME":"Jefferson County","BASENAME":"Jefferson","GEOID":"12065"}},{"type":"Feature","geometry":{"type":"Polygon","coordinates":[[[-81.45895,30.5242],[-81.4337,30.50657],[-81.35879,30.5015],[-81.37767,30.54446],[-81.38201,30.61591],[-81.3734,30.66278],[-81.35155,30.68567],[-81.34702,30.71244],[-81.45124,30.70948],[-81.47411,30.71391],[-81.48846,30.72631],[-81.53229,30.72409],[-81.53839,30.70866],[-81.54838,30.71828],[-81.56142,30.71167],[-81.57422,30.7225],[-81.59618,30.71867],[-81.60188,30.72959],[-81.60987,30.71593],[-81.62298,30.72347],[-81.62437,30.73634],[-81.63043,30.72809],[-81.63662,30.73394],[-81.65215,30.72887],[-81.65183,30.74221],[-81.66301,30.74349],[-81.66232,30.75418],[-81.6831,30.74849],[-81.67084,30.7474],[-81.67249,30.73879],[-81.69389,30.74847],[-81.72013,30.74472],[-81.76172,30.7757],[-81.77071,30.77682],[-81.77157,30.76414],[-81.78263,30.76145],[-81.79307,30.78725],[-81.79717,30.78147],[-81.80745,30.79012],[-81.86851,30.79291],[-81.88267,30.80028],[-81.89198,30.82488],[-81.90124,30.82988],[-81.90911,30.81568],[-81.92874,30.81751],[-81.93883,30.82985],[-81.94964,30.82784],[-81.96448,30.8173],[-81.96217,30.79698],[-81.97364,30.77872],[-82.00767,30.79304],[-82.02288,30.78771],[-82.0116,30.76188],[-82.02768,30.75094],[-82.03677,30.75443],[-82.04561,30.72755],[-82.03593,30.7062],[-82.05026,30.67612],[-82.04902,30.6553],[-82.02826,30.62201],[-82.02723,30.60666],[-82.01509,30.6006],[-82.0054,30.56357],[-82.01905,30.53301],[-82.01691,30.47511],[-82.04,30.43666],[-82.03406,30.42003],[-82.04376,30.41487],[-82.03581,30.38485],[-82.03722,30.37185],[-82.04996,30.36247],[-82.04923,30.27334],[-81.80953,30.48454],[-81.79492,30.50541],[-81.78162,30.50334],[-81.76532,30.51844],[-81.76375,30.53492],[-81.73827,30.53469],[-81.73631,30.55709],[-81.72659,30.55958],[-81.72188,30.57193],[-81.70438,30.5636],[-81.69795,30.56967],[-81.69552,30.56317],[-81.67394,30.56619],[-81.66373,30.55084],[-81.6499,30.57662],[-81.60616,30.58557],[-81.611,30.57594],[-81.60146,30.56767],[-81.61418,30.56305],[-81.61065,30.555],[-81.58441,30.56599],[-81.58892,30.54905],[-81.57729,30.53802],[-81.55525,30.54453],[-81.54695,30.52594],[-81.53024,30.52629],[-81.51995,30.54364],[-81.52381,30.55634],[-81.51401,30.56734],[-81.49958,30.56379],[-81.4844,30.53744],[-81.45895,30.5242]]]},"properties":{"NAME":"Nassau County","BASENAME":"Nassau","GEOID":"12089"}},{"type":"Feature","geometry":{"type":"Polygon","coordinates":[[[-85.43267,30.72847],[-85.43227,30.78546],[-85.48272,30.78589],[-85.48228,30.82951],[-85.59993,30.83055],[-85.60322,30.79653],[-85.62146,30.77088],[-85.61901,30.74387],[-85.73605,30.74637],[-85.73511,30.77529],[-85.75198,30.77571],[-85.75193,30.78984],[-85.82162,30.79078],[-85.81636,30.78255],[-85.83252,30.75922],[-85.83253,30.74868],[-85.82388,30.7432],[-85.82998,30.74058],[-85.82259,30.73879],[-85.82525,30.72578],[-85.83475,30.72632],[-85.83516,30.71032],[-85.85799,30.69857],[-85.86734,30.68049],[-85.87549,30.68084],[-85.87557,30.66807],[-85.86712,30.66313],[-85.8906,30.65645],[-85.9153,30.63643],[-85.90822,30.61369],[-85.91592,30.59679],[-85.90893,30.5974],[-85.90946,30.58688],[-85.88905,30.58154],[-85.89094,30.56448],[-85.87983,30.55621],[-85.88382,30.50784],[-85.86791,30.50693],[-85.85947,30.49078],[-85.87802,30.46685],[-85.88936,30.47114],[-85.90272,30.44244],[-85.94959,30.44476],[-85.96911,30.43111],[-85.97922,30.43258],[-85.9934,30.4059],[-85.99274,30.38932],[-85.96497,30.41071],[-85.94025,30.40862],[-85.92393,30.41638],[-85.90764,30.40582],[-85.88398,30.41025],[-85.8535,30.44062],[-85.48797,30.43666],[-85.48636,30.56757],[-85.43478,30.56756],[-85.43267,30.72847]]]},"properties":{"NAME":"Washington County","BASENAME":"Washington","GEOID":"12133"}},{"type":"Feature","geometry":{"type":"Polygon","coordinates":[[[-81.27783,28.61121],[-80.98725,28.613],[-80.98876,28.62452],[-80.99454,28.6217],[-81.0071,28.63633],[-81.00106,28.64001],[-81.00723,28.66345],[-81.02129,28.67425],[-81.01665,28.69304],[-81.06111,28.75],[-81.05309,28.77356],[-81.06741,28.81299],[-81.10529,28.82848],[-81.11906,28.82637],[-81.12659,28.8209],[-81.12929,28.79945],[-81.14033,28.79624],[-81.13617,28.79222],[-81.17894,28.78189],[-81.181,28.79661],[-81.19737,28.79192],[-81.21372,28.80421],[-81.226,28.83263],[-81.32047,28.83453],[-81.35803,28.8478],[-81.35212,28.86232],[-81.36465,28.86569],[-81.36017,28.8714],[-81.36694,28.87923],[-81.38296,28.85199],[-81.41756,28.82273],[-81.41364,28.79184],[-81.42116,28.74054],[-81.44142,28.7151],[-81.45952,28.71326],[-81.45973,28.6402],[-81.32848,28.63963],[-81.32789,28.6105],[-81.27783,28.61121]]]},"properties":{"NAME":"Seminole County","BASENAME":"Seminole","GEOID":"12117"}},{"type":"Feature","geometry":{"type":"Polygon","coordinates":[[[-81.82903,27.34012],[-81.564,27.34066],[-81.56353,27.64664],[-82.05435,27.64638],[-82.05575,27.33826],[-81.82903,27.34012]]]},"properties":{"NAME":"Hardee County","BASENAME":"Hardee","GEOID":"12049"}},{"type":"Feature","geometry":{"type":"Polygon","coordinates":[[[-82.05029,29.70973],[-82.05807,29.74806],[-82.07314,29.76036],[-82.08805,29.76071],[-82.08004,29.76704],[-82.08173,29.77814],[-82.11755,29.7906],[-82.13313,29.83595],[-82.17513,29.83734],[-82.19194,29.84842],[-82.23351,29.8453],[-82.24245,29.85246],[-82.28172,29.84441],[-82.30503,29.85317],[-82.31418,29.8676],[-82.33496,29.87871],[-82.39752,29.88607],[-82.41261,29.92216],[-82.44738,29.93194],[-82.46981,29.92573],[-82.48438,29.93972],[-82.52534,29.94505],[-82.54121,29.92569],[-82.55474,29.92854],[-82.5794,29.91479],[-82.57588,29.89486],[-82.59255,29.88752],[-82.58648,29.8667],[-82.60628,29.85286],[-82.61974,29.85911],[-82.61768,29.84735],[-82.63125,29.84911],[-82.64138,29.82742],[-82.65855,29.83014],[-82.65633,29.53562],[-82.5572,29.53753],[-82.55677,29.48005],[-82.21145,29.48407],[-82.20804,29.46659],[-82.20341,29.47212],[-82.18806,29.46039],[-82.19191,29.45231],[-82.19926,29.45656],[-82.19345,29.46144],[-82.21166,29.46606],[-82.21772,29.4571],[-82.21333,29.43191],[-82.19964,29.42217],[-82.15097,29.42678],[-82.14862,29.41706],[-82.13498,29.435],[-82.11932,29.42825],[-82.10259,29.43839],[-82.09566,29.4301],[-82.0992,29.41881],[-82.08094,29.44039],[-82.07052,29.43424],[-82.07129,29.44327],[-82.05564,29.44185],[-82.05029,29.70973]]]},"properties":{"NAME":"Alachua County","BASENAME":"Alachua","GEOID":"12001"}},{"type":"Feature","geometry":{"type":"Polygon","coordinates":[[[-82.25329,28.47849],[-82.05469,28.4784],[-82.05447,28.52137],[-82.07034,28.53192],[-82.09545,28.52384],[-82.10919,28.54366],[-82.12864,28.54494],[-82.13763,28.56525],[-82.15616,28.57335],[-82.16627,28.56366],[-82.19167,28.57493],[-82.21195,28.57405],[-82.24595,28.62677],[-82.26016,28.63504],[-82.25684,28.64887],[-82.2741,28.6546],[-82.26305,28.66763],[-82.418,28.66592],[-82.41835,28.69486],[-82.88954,28.69321],[-82.87086,28.6216],[-82.83914,28.57458],[-82.85645,28.52774],[-82.85543,28.47721],[-82.87494,28.43079],[-82.25344,28.43482],[-82.25329,28.47849]]]},"properties":{"NAME":"Hernando County","BASENAME":"Hernando","GEOID":"12053"}},{"type":"Feature","geometry":{"type":"Polygon","coordinates":[[[-84.1608,29.92127],[-84.07633,29.93749],[-84.07554,30.27362],[-84.24122,30.27424],[-84.24767,30.30349],[-84.71335,30.30017],[-84.72921,30.28744],[-84.72766,30.27585],[-84.73785,30.26565],[-84.70145,30.24846],[-84.69967,30.2278],[-84.68193,30.21807],[-84.67826,30.18809],[-84.66492,30.17],[-84.67254,30.15041],[-84.66545,30.13449],[-84.67036,30.12763],[-84.65962,30.11508],[-84.65287,30.11799],[-84.64814,30.10536],[-84.65425,30.09706],[-84.63789,30.08374],[-84.63079,30.06513],[-84.61604,30.06536],[-84.60392,30.04633],[-84.59666,30.04696],[-84.59324,30.04018],[-84.59932,30.03889],[-84.59105,30.02964],[-84.56948,30.01662],[-84.55745,30.02175],[-84.55569,30.01478],[-84.54302,30.01284],[-84.54887,30.00709],[-84.54242,30.00244],[-84.52659,30.00645],[-84.5204,29.98048],[-84.5121,29.98204],[-84.51413,29.98908],[-84.48709,29.98846],[-84.4702,30.0025],[-84.45968,29.99338],[-84.45455,29.97133],[-84.42686,29.98591],[-84.34884,29.96908],[-84.29688,29.97256],[-84.41155,29.74564],[-84.309,29.75065],[-84.23669,29.78177],[-84.18344,29.84155],[-84.1608,29.92127]]]},"properties":{"NAME":"Wakulla County","BASENAME":"Wakulla","GEOID":"12129"}},{"type":"Feature","geometry":{"type":"Polygon","coordinates":[[[-86.39203,30.75066],[-86.39964,30.22696],[-86.30638,30.2094],[-86.19048,30.17556],[-86.00077,30.1036],[-85.9934,30.4059],[-85.97922,30.43258],[-85.96911,30.43111],[-85.96242,30.44059],[-85.90272,30.44244],[-85.88936,30.47114],[-85.87802,30.46685],[-85.85977,30.49013],[-85.86791,30.50693],[-85.88382,30.50784],[-85.87983,30.55621],[-85.89094,30.56448],[-85.88905,30.58154],[-85.90946,30.58688],[-85.90893,30.5974],[-85.91592,30.59679],[-85.90822,30.61369],[-85.9153,30.63643],[-85.8906,30.65645],[-85.86712,30.66313],[-85.87557,30.66807],[-85.87549,30.68084],[-85.86734,30.68049],[-85.86582,30.69115],[-85.84442,30.70313],[-86.03759,30.70457],[-86.03504,30.99332],[-86.38865,30.99418],[-86.39203,30.75066]]]},"properties":{"NAME":"Walton County","BASENAME":"Walton","GEOID":"12131"}},{"type":"Feature","geometry":{"type":"Polygon","coordinates":[[[-81.54173,29.77104],[-81.56452,29.79911],[-81.58121,29.84018],[-81.81243,29.83649],[-81.86199,29.80019],[-81.91419,29.7914],[-81.93943,29.7475],[-81.99107,29.74395],[-82.00707,29.73949],[-82.02892,29.71868],[-82.05562,29.71823],[-82.04905,29.71337],[-82.05607,29.65685],[-82.0559,29.47123],[-82.03197,29.49226],[-82.00438,29.50172],[-81.96396,29.50385],[-81.93126,29.51647],[-81.91205,29.50391],[-81.90169,29.51595],[-81.88762,29.50921],[-81.84301,29.521],[-81.84278,29.48653],[-81.7762,29.48745],[-81.77491,29.42925],[-81.74183,29.42994],[-81.74142,29.37105],[-81.66852,29.3717],[-81.65633,29.33797],[-81.6754,29.33865],[-81.6809,29.32443],[-81.4457,29.38006],[-81.43358,29.39817],[-81.455,29.38965],[-81.47749,29.39715],[-81.48759,29.44825],[-81.52047,29.49651],[-81.52523,29.7595],[-81.54173,29.77104]]]},"properties":{"NAME":"Putnam County","BASENAME":"Putnam","GEOID":"12107"}},{"type":"Feature","geometry":{"type":"Polygon","coordinates":[[[-81.15534,29.40376],[-81.14873,29.41679],[-81.11102,29.4269],[-81.04192,29.43289],[-81.15082,29.67109],[-81.22731,29.67054],[-81.24726,29.65909],[-81.26102,29.66908],[-81.27447,29.65268],[-81.30018,29.65098],[-81.30865,29.64206],[-81.32452,29.65354],[-81.32406,29.62561],[-81.52366,29.62243],[-81.52047,29.49651],[-81.48759,29.44825],[-81.47879,29.39905],[-81.455,29.38965],[-81.42074,29.39965],[-81.41729,29.26116],[-81.15008,29.26596],[-81.15534,29.40376]]]},"properties":{"NAME":"Flagler County","BASENAME":"Flagler","GEOID":"12035"}},{"type":"Feature","geometry":{"type":"Polygon","coordinates":[[[-81.15781,28.61223],[-81.32789,28.6105],[-81.32848,28.63963],[-81.45973,28.6402],[-81.45952,28.71326],[-81.44142,28.7151],[-81.42277,28.73691],[-81.41457,28.78556],[-81.64651,28.78587],[-81.64651,28.76987],[-81.6586,28.76644],[-81.6572,28.59257],[-81.6481,28.58448],[-81.6572,28.56983],[-81.65727,28.3471],[-80.86291,28.34749],[-80.88848,28.38559],[-80.88299,28.40816],[-80.90127,28.43354],[-80.89012,28.44541],[-80.89835,28.45508],[-80.89452,28.46704],[-80.8708,28.47136],[-80.87524,28.48949],[-80.88259,28.49149],[-80.88574,28.51031],[-80.90446,28.51044],[-80.91141,28.52457],[-80.93939,28.53512],[-80.93004,28.56322],[-80.95195,28.60415],[-80.98725,28.613],[-81.15781,28.61223]]]},"properties":{"NAME":"Orange County","BASENAME":"Orange","GEOID":"12095"}},{"type":"Feature","geometry":{"type":"Polygon","coordinates":[[[-83.01875,28.17098],[-82.99746,28.01275],[-83.01935,27.90039],[-83.0173,27.84442],[-83.00329,27.79681],[-82.97529,27.74726],[-82.91522,27.68413],[-82.92401,27.64772],[-82.74576,27.64879],[-82.73521,27.6105],[-82.70257,27.62579],[-82.69675,27.64905],[-82.62694,27.64938],[-82.57457,27.71127],[-82.56151,27.78695],[-82.58361,27.92285],[-82.60918,27.94479],[-82.64772,27.95435],[-82.65128,28.17327],[-83.01875,28.17098]]]},"properties":{"NAME":"Pinellas County","BASENAME":"Pinellas","GEOID":"12103"}},{"type":"Feature","geometry":{"type":"Polygon","coordinates":[[[-82.72862,30.52574],[-82.7236,30.51745],[-82.7184,30.52102],[-82.71578,30.50589],[-82.7062,30.5045],[-82.70623,30.4925],[-82.69675,30.48962],[-82.70158,30.47741],[-82.67742,30.47201],[-82.68021,30.46101],[-82.66328,30.45205],[-82.67289,30.44808],[-82.65912,30.44076],[-82.64551,30.40677],[-82.64731,30.39464],[-82.66542,30.37924],[-82.66243,30.37002],[-82.68687,30.35369],[-82.68147,30.34281],[-82.68992,30.33311],[-82.71701,30.32114],[-82.72464,30.3338],[-82.74541,30.31737],[-82.76323,30.33091],[-82.78843,30.32398],[-82.79459,30.33702],[-82.79398,29.9862],[-82.76041,29.98621],[-82.75858,29.97571],[-82.762,29.96458],[-82.78576,29.95488],[-82.80048,29.93213],[-82.76986,29.92781],[-82.7693,29.89771],[-82.75365,29.8935],[-82.75285,29.88021],[-82.73294,29.85647],[-82.69449,29.8344],[-82.65149,29.82559],[-82.63521,29.83295],[-82.63125,29.84911],[-82.61768,29.84735],[-82.61974,29.85911],[-82.60628,29.85286],[-82.58648,29.8667],[-82.59255,29.88752],[-82.57588,29.89486],[-82.57854,29.91565],[-82.52944,29.93428],[-82.5333,29.95836],[-82.56938,29.97516],[-82.57614,29.99116],[-82.57305,30.01078],[-82.53644,30.0254],[-82.53569,30.05452],[-82.51644,30.07826],[-82.45599,30.10558],[-82.45979,30.58427],[-82.69635,30.59626],[-82.70617,30.57475],[-82.72467,30.56431],[-82.71435,30.53219],[-82.72862,30.52574]]]},"properties":{"NAME":"Columbia County","BASENAME":"Columbia","GEOID":"12023"}},{"type":"Feature","geometry":{"type":"Polygon","coordinates":[[[-85.82162,30.79078],[-85.75193,30.78984],[-85.75198,30.77571],[-85.73511,30.77529],[-85.73605,30.74637],[-85.61901,30.74387],[-85.62146,30.77088],[-85.60322,30.79653],[-85.59968,30.84383],[-85.58296,30.88483],[-85.54774,30.93219],[-85.5304,30.93912],[-85.52921,30.97444],[-85.49799,30.99693],[-86.03504,30.99332],[-86.03759,30.70457],[-85.84431,30.70313],[-85.83498,30.7106],[-85.83494,30.72606],[-85.8256,30.72551],[-85.82253,30.73528],[-85.83302,30.75],[-85.82769,30.77489],[-85.81636,30.78255],[-85.82162,30.79078]]]},"properties":{"NAME":"Holmes County","BASENAME":"Holmes","GEOID":"12059"}},{"type":"Feature","geometry":{"type":"Polygon","coordinates":[[[-83.99996,29.89895],[-83.97264,29.88642],[-83.91451,29.83966],[-83.83029,29.81972],[-83.78495,29.79382],[-83.75747,29.75321],[-83.74515,29.70537],[-83.71007,29.64919],[-83.67539,29.61708],[-83.6144,29.58842],[-83.58207,29.56332],[-83.57541,29.527],[-83.41544,29.66554],[-83.39963,29.67397],[-83.36321,29.66824],[-83.36522,29.67634],[-83.35074,29.6953],[-83.34568,29.74349],[-83.31946,29.77833],[-83.31886,29.82262],[-83.35286,29.82222],[-83.35299,29.88786],[-83.37089,29.88793],[-83.36726,30.26044],[-83.46927,30.26035],[-83.46877,30.30421],[-83.82024,30.30354],[-83.83734,30.28078],[-83.87951,30.26913],[-83.90258,30.24746],[-83.91576,30.24531],[-83.92545,30.19286],[-83.9513,30.18628],[-83.96036,30.15215],[-83.97333,30.14562],[-83.96866,30.13603],[-83.99218,30.09621],[-83.99996,29.89895]]]},"properties":{"NAME":"Taylor County","BASENAME":"Taylor","GEOID":"12123"}},{"type":"Feature","geometry":{"type":"Polygon","coordinates":[[[-82.274,29.99832],[-82.25964,30.02843],[-82.22604,30.03398],[-82.18022,30.07059],[-82.16992,30.0992],[-82.14237,30.1163],[-82.14258,30.14312],[-82.45836,30.13645],[-82.45252,30.12389],[-82.45768,30.10279],[-82.51891,30.07613],[-82.53916,30.04417],[-82.53469,30.02778],[-82.5729,30.01091],[-82.57614,29.99116],[-82.55531,29.96397],[-82.5333,29.95836],[-82.5297,29.94088],[-82.48438,29.93972],[-82.46981,29.92573],[-82.43659,29.93085],[-82.4224,29.91992],[-82.35802,29.93357],[-82.34696,29.94259],[-82.34207,29.96142],[-82.30741,29.95616],[-82.274,29.99832]]]},"properties":{"NAME":"Union County","BASENAME":"Union","GEOID":"12125"}},{"type":"Feature","geometry":{"type":"Polygon","coordinates":[[[-82.38488,27.64639],[-82.05421,27.64659],[-82.05624,28.17171],[-82.65129,28.17344],[-82.64772,27.95435],[-82.60103,27.94014],[-82.57878,27.91038],[-82.56151,27.78695],[-82.57257,27.71558],[-82.62694,27.64938],[-82.69675,27.64905],[-82.70257,27.62579],[-82.73482,27.61053],[-82.74576,27.64879],[-82.92401,27.64772],[-82.9346,27.60394],[-82.93292,27.56203],[-82.92417,27.53075],[-82.74955,27.56568],[-82.55565,27.64556],[-82.38488,27.64639]]]},"properties":{"NAME":"Hillsborough County","BASENAME":"Hillsborough","GEOID":"12057"}},{"type":"Feature","geometry":{"type":"Polygon","coordinates":[[[-82.25533,27.00559],[-82.25552,26.94526],[-82.56586,26.94731],[-82.46201,26.78743],[-82.26468,26.78943],[-82.22149,26.78175],[-82.20556,26.77053],[-81.56575,26.7696],[-81.56262,27.03384],[-82.25517,27.03302],[-82.25533,27.00559]]]},"properties":{"NAME":"Charlotte County","BASENAME":"Charlotte","GEOID":"12015"}},{"type":"Feature","geometry":{"type":"Polygon","coordinates":[[[-82.18399,30.06685],[-82.22604,30.03398],[-82.25983,30.02827],[-82.27927,29.98865],[-82.3069,29.95646],[-82.34207,29.96142],[-82.34696,29.94259],[-82.35802,29.93357],[-82.41873,29.92309],[-82.40663,29.91405],[-82.39752,29.88607],[-82.33496,29.87871],[-82.31418,29.8676],[-82.30503,29.85317],[-82.28184,29.84445],[-82.24245,29.85246],[-82.23351,29.8453],[-82.19194,29.84842],[-82.17513,29.83734],[-82.13313,29.83595],[-82.11755,29.7906],[-82.07935,29.776],[-82.08805,29.76071],[-82.07314,29.76036],[-82.05807,29.74806],[-82.05562,29.71823],[-82.04924,29.71867],[-82.04943,30.14314],[-82.14258,30.14312],[-82.14237,30.1163],[-82.16992,30.0992],[-82.18399,30.06685]]]},"properties":{"NAME":"Bradford County","BASENAME":"Bradford","GEOID":"12007"}},{"type":"Feature","geometry":{"type":"Polygon","coordinates":[[[-82.52475,27.64542],[-82.55565,27.64556],[-82.74955,27.56568],[-82.92417,27.53075],[-82.89175,27.46021],[-82.86162,27.42373],[-82.85074,27.39139],[-82.25226,27.38624],[-82.2536,27.20892],[-82.0565,27.20777],[-82.05435,27.64638],[-82.52475,27.64542]]]},"properties":{"NAME":"Manatee County","BASENAME":"Manatee","GEOID":"12081"}},{"type":"Feature","geometry":{"type":"Polygon","coordinates":[[[-84.99228,30.51931],[-84.96152,30.56509],[-84.96542,30.58019],[-84.94512,30.58099],[-84.94492,30.59549],[-84.93252,30.60639],[-85.16771,30.60803],[-85.17189,30.56434],[-85.38395,30.56686],[-85.38968,30.20097],[-85.11566,30.19998],[-85.11823,30.21049],[-85.10992,30.2093],[-85.11046,30.21837],[-85.10108,30.21204],[-85.09146,30.22936],[-85.0806,30.22902],[-85.07831,30.24949],[-85.05971,30.26155],[-85.06395,30.27086],[-85.05273,30.28697],[-85.05692,30.30346],[-85.04745,30.30307],[-85.04815,30.31267],[-85.03429,30.31248],[-85.04627,30.32017],[-85.04997,30.33817],[-85.04038,30.35572],[-85.02601,30.36304],[-85.0402,30.37209],[-85.01461,30.38739],[-85.01557,30.39617],[-85.02988,30.40327],[-85.01366,30.41065],[-85.02942,30.41301],[-85.03188,30.42265],[-84.98123,30.44413],[-85.00153,30.44978],[-84.98668,30.46655],[-85.00431,30.47621],[-84.99446,30.48908],[-84.99228,30.51931]]]},"properties":{"NAME":"Calhoun County","BASENAME":"Calhoun","GEOID":"12013"}},{"type":"Feature","geometry":{"type":"Polygon","coordinates":[[[-87.11393,30.35196],[-86.91894,30.38651],[-86.91833,30.21764],[-86.80337,30.23495],[-86.78569,30.99698],[-87.16365,30.99903],[-87.176,30.99659],[-87.17496,30.98862],[-87.2132,30.96203],[-87.22763,30.96111],[-87.23143,30.96832],[-87.24132,30.96186],[-87.24146,30.94858],[-87.256,30.93119],[-87.26721,30.93498],[-87.28688,30.92544],[-87.28218,30.9104],[-87.29051,30.90823],[-87.28329,30.89134],[-87.29844,30.88125],[-87.29763,30.87118],[-87.31391,30.84871],[-87.30137,30.84152],[-87.29277,30.81128],[-87.30546,30.79857],[-87.30195,30.78977],[-87.31261,30.78599],[-87.30518,30.77724],[-87.31059,30.77171],[-87.29943,30.76675],[-87.31241,30.73477],[-87.30266,30.71937],[-87.28145,30.71962],[-87.26941,30.71169],[-87.27336,30.69352],[-87.26549,30.68837],[-87.26478,30.64964],[-87.25194,30.62422],[-87.26089,30.62103],[-87.2592,30.61151],[-87.23477,30.59581],[-87.20971,30.55527],[-87.15729,30.53795],[-87.12145,30.49742],[-87.15191,30.4126],[-87.23266,30.37118],[-87.23143,30.34331],[-87.17902,30.33593],[-87.15312,30.34837],[-87.11393,30.35196]]]},"properties":{"NAME":"Santa Rosa County","BASENAME":"Santa Rosa","GEOID":"12113"}},{"type":"Feature","geometry":{"type":"Polygon","coordinates":[[[-83.30948,30.63401],[-83.26858,30.62149],[-83.25643,30.58662],[-83.26259,30.58262],[-83.25581,30.56046],[-83.26085,30.55296],[-83.24715,30.5408],[-83.24968,30.53236],[-83.23894,30.51802],[-83.24612,30.5126],[-83.24056,30.50593],[-83.24377,30.47313],[-83.21772,30.46406],[-83.22221,30.42353],[-83.20964,30.42114],[-83.20616,30.41214],[-83.19486,30.41696],[-83.18028,30.41054],[-83.17097,30.38523],[-83.15521,30.41722],[-83.13522,30.41864],[-83.1221,30.43261],[-83.0821,30.44287],[-83.07057,30.42447],[-83.03455,30.43088],[-83.00793,30.42247],[-83.00323,30.43183],[-82.95625,30.41369],[-82.94877,30.401],[-82.90856,30.38007],[-82.90588,30.38808],[-82.88905,30.38616],[-82.89345,30.3741],[-82.88513,30.36532],[-82.85216,30.35714],[-82.84432,30.34094],[-82.83212,30.34677],[-82.81058,30.33701],[-82.80394,30.3454],[-82.7885,30.32401],[-82.76323,30.33091],[-82.74541,30.31737],[-82.72464,30.3338],[-82.71701,30.32114],[-82.68968,30.33325],[-82.68147,30.34281],[-82.68677,30.35385],[-82.66253,30.3699],[-82.65826,30.39103],[-82.64705,30.39513],[-82.65258,30.42911],[-82.6729,30.44811],[-82.66254,30.45097],[-82.68021,30.46101],[-82.67742,30.47201],[-82.70158,30.47741],[-82.69675,30.48962],[-82.70623,30.4925],[-82.7062,30.5045],[-82.71578,30.50589],[-82.7184,30.52102],[-82.7236,30.51745],[-82.72862,30.52571],[-82.71435,30.53219],[-82.72467,30.56431],[-82.71681,30.56447],[-82.68954,30.59773],[-83.30948,30.63401]]]},"properties":{"NAME":"Hamilton County","BASENAME":"Hamilton","GEOID":"12047"}},{"type":"Feature","geometry":{"type":"Polygon","coordinates":[[[-82.85074,27.39139],[-82.82627,27.34776],[-82.73465,27.24682],[-82.7109,27.19485],[-82.67054,27.15444],[-82.60032,27.0014],[-82.56586,26.94731],[-82.25552,26.94526],[-82.25517,27.03302],[-82.05751,27.03212],[-82.0565,27.20777],[-82.2536,27.20892],[-82.25226,27.38624],[-82.85074,27.39139]]]},"properties":{"NAME":"Sarasota County","BASENAME":"Sarasota","GEOID":"12115"}},{"type":"Feature","geometry":{"type":"Polygon","coordinates":[[[-80.98725,28.613],[-80.95207,28.60423],[-80.94346,28.59389],[-80.94716,28.58489],[-80.93001,28.56296],[-80.93939,28.53512],[-80.91141,28.52457],[-80.90446,28.51044],[-80.88574,28.51031],[-80.87077,28.47156],[-80.89452,28.46704],[-80.89835,28.45508],[-80.89012,28.44541],[-80.90127,28.43354],[-80.88299,28.40816],[-80.88848,28.38559],[-80.86278,28.34712],[-80.86888,27.82252],[-80.50907,27.82206],[-80.49108,27.8546],[-80.38507,27.86136],[-80.49977,28.07723],[-80.544,28.27109],[-80.51943,28.39108],[-80.48121,28.42551],[-80.46939,28.4531],[-80.47055,28.47233],[-80.50358,28.54036],[-80.52297,28.60824],[-80.66346,28.79059],[-80.96789,28.7902],[-80.96445,28.61304],[-80.98725,28.613]]]},"properties":{"NAME":"Brevard County","BASENAME":"Brevard","GEOID":"12009"}},{"type":"Feature","geometry":{"type":"Polygon","coordinates":[[[-81.56371,27.50016],[-81.56263,27.03369],[-81.34266,27.03232],[-81.3418,27.03973],[-81.33301,27.03962],[-81.33301,27.03237],[-81.26722,27.03247],[-81.26768,27.1211],[-81.16828,27.12173],[-81.16914,27.20959],[-80.94068,27.20594],[-80.95119,27.22461],[-80.96185,27.21516],[-80.98517,27.23145],[-80.98061,27.24641],[-80.99305,27.25055],[-81.00073,27.26776],[-80.9946,27.29733],[-81.0256,27.30237],[-81.03,27.32358],[-81.04411,27.32967],[-81.04259,27.34722],[-81.03075,27.3514],[-81.03443,27.35916],[-81.05114,27.36302],[-81.05002,27.37066],[-81.0684,27.38235],[-81.09834,27.37908],[-81.1215,27.38992],[-81.12335,27.40316],[-81.14408,27.41228],[-81.13862,27.42409],[-81.14487,27.44501],[-81.17289,27.46307],[-81.18272,27.48387],[-81.20539,27.49025],[-81.19944,27.51505],[-81.21416,27.52925],[-81.20247,27.5394],[-81.20568,27.54768],[-81.15658,27.57449],[-81.15529,27.59161],[-81.14048,27.60083],[-81.14216,27.64324],[-81.56353,27.64664],[-81.56371,27.50016]]]},"properties":{"NAME":"Highlands County","BASENAME":"Highlands","GEOID":"12055"}},{"type":"Feature","geometry":{"type":"Polygon","coordinates":[[[-83.18791,28.98657],[-83.13532,28.95752],[-83.08218,28.94619],[-83.00158,28.9473],[-82.94557,28.96375],[-82.94177,28.90683],[-82.9158,28.8565],[-82.92718,28.81358],[-82.92539,28.77548],[-82.88954,28.69321],[-82.41835,28.69486],[-82.418,28.66592],[-82.26305,28.66763],[-82.24908,28.71777],[-82.20775,28.75662],[-82.18481,28.76177],[-82.18793,28.77776],[-82.16929,28.79193],[-82.18364,28.82363],[-82.23195,28.85658],[-82.24253,28.87681],[-82.27358,28.89722],[-82.31584,28.97327],[-82.36139,28.99351],[-82.36484,29.0024],[-82.3935,29.00801],[-82.40164,29.019],[-82.41866,29.01313],[-82.45857,29.04765],[-82.47789,29.05257],[-82.50813,29.03748],[-82.53648,29.04482],[-82.57697,29.02806],[-82.59522,29.02987],[-82.60213,29.01345],[-82.61265,29.00927],[-82.68981,29.03396],[-82.71153,29.03099],[-82.76157,28.99209],[-83.18791,28.98657]]]},"properties":{"NAME":"Citrus County","BASENAME":"Citrus","GEOID":"12017"}},{"type":"Feature","geometry":{"type":"Polygon","coordinates":[[[-84.38416,30.55386],[-84.39242,30.51484],[-84.40504,30.50796],[-84.3954,30.49053],[-84.40293,30.47577],[-84.42094,30.46366],[-84.43481,30.46611],[-84.46051,30.45591],[-84.49531,30.4603],[-84.53033,30.43988],[-84.56146,30.43791],[-84.591,30.41173],[-84.60692,30.41614],[-84.62528,30.40892],[-84.64794,30.39436],[-84.67048,30.36414],[-84.6808,30.3681],[-84.68489,30.35011],[-84.715,30.33328],[-84.70102,30.31903],[-84.71335,30.30017],[-84.24767,30.30349],[-84.24122,30.27424],[-84.07554,30.27362],[-84.07469,30.4343],[-84.04149,30.46331],[-84.04115,30.5219],[-83.97717,30.52199],[-83.98701,30.5472],[-83.97906,30.55083],[-83.99802,30.57147],[-84.00769,30.6093],[-84.00745,30.67213],[-84.2975,30.68252],[-84.30532,30.67021],[-84.29911,30.66194],[-84.3037,30.63474],[-84.32476,30.61811],[-84.33217,30.5964],[-84.34086,30.60021],[-84.37122,30.58147],[-84.38416,30.55386]]]},"properties":{"NAME":"Leon County","BASENAME":"Leon","GEOID":"12073"}},{"type":"Feature","geometry":{"type":"Polygon","coordinates":[[[-84.97897,30.01379],[-84.54287,30.01218],[-84.5618,30.02277],[-84.57037,30.01688],[-84.59511,30.03329],[-84.59666,30.04696],[-84.60392,30.04633],[-84.61604,30.06536],[-84.63133,30.06568],[-84.63789,30.08374],[-84.65425,30.09706],[-84.64814,30.10536],[-84.65287,30.11799],[-84.65962,30.11508],[-84.67036,30.12763],[-84.66545,30.13449],[-84.67254,30.15041],[-84.66492,30.17],[-84.67826,30.18809],[-84.68198,30.21818],[-84.69967,30.2278],[-84.70145,30.24846],[-84.73785,30.26565],[-84.72766,30.27585],[-84.72921,30.28744],[-84.70111,30.31767],[-84.715,30.33328],[-84.68489,30.35011],[-84.6808,30.3681],[-84.67048,30.36414],[-84.66358,30.3784],[-84.64641,30.38828],[-84.68063,30.38797],[-84.68052,30.41727],[-84.71412,30.4172],[-84.7141,30.4604],[-84.78111,30.45979],[-84.78181,30.51869],[-84.81562,30.51849],[-84.81582,30.53309],[-84.88262,30.53309],[-84.88332,30.60559],[-84.93252,30.60639],[-84.94492,30.59549],[-84.94512,30.58099],[-84.96542,30.58019],[-84.96152,30.56509],[-84.99122,30.5224],[-84.99446,30.48908],[-85.00431,30.47621],[-84.98669,30.46958],[-85.00081,30.44807],[-84.98123,30.44413],[-85.03188,30.42265],[-85.02942,30.41301],[-85.01366,30.41065],[-85.02988,30.40327],[-85.01557,30.39617],[-85.01461,30.38739],[-85.0402,30.37209],[-85.02601,30.36304],[-85.04038,30.35572],[-85.04997,30.33817],[-85.04627,30.32017],[-85.03429,30.31248],[-85.04815,30.31267],[-85.04745,30.30307],[-85.05692,30.30346],[-85.05273,30.28697],[-85.06411,30.26987],[-85.05909,30.26323],[-85.07871,30.24884],[-85.07985,30.22972],[-85.09146,30.22936],[-85.10181,30.21174],[-85.11137,30.218],[-85.10992,30.2093],[-85.11924,30.20863],[-85.11544,30.2002],[-85.13477,30.18077],[-85.13876,30.14772],[-85.13209,30.14441],[-85.14542,30.12466],[-85.12996,30.11846],[-85.14185,30.11545],[-85.14095,30.10886],[-85.14861,30.11145],[-85.14492,30.09747],[-85.15401,30.09204],[-85.13458,30.08279],[-85.13121,30.03796],[-85.11467,30.02341],[-85.09716,30.0241],[-85.09898,30.01532],[-85.05651,30.00327],[-85.04973,29.99012],[-85.0298,29.98741],[-85.02544,29.9714],[-85.00763,30.01388],[-84.97897,30.01379]]]},"properties":{"NAME":"Liberty County","BASENAME":"Liberty","GEOID":"12077"}},{"type":"Feature","geometry":{"type":"Polygon","coordinates":[[[-87.63487,30.86634],[-87.61524,30.83421],[-87.54543,30.77939],[-87.53256,30.7432],[-87.50234,30.72147],[-87.48128,30.717],[-87.46809,30.70021],[-87.44957,30.69896],[-87.40647,30.67515],[-87.39434,30.64561],[-87.39665,30.60888],[-87.40759,30.60086],[-87.41195,30.57417],[-87.43512,30.54909],[-87.43896,30.53029],[-87.44798,30.52661],[-87.44452,30.51425],[-87.45037,30.51446],[-87.43098,30.4983],[-87.43558,30.4805],[-87.42508,30.4656],[-87.39988,30.451],[-87.37077,30.44686],[-87.36659,30.43665],[-87.40298,30.4104],[-87.42958,30.4065],[-87.46108,30.3353],[-87.5047,30.32404],[-87.49998,30.3062],[-87.45008,30.3111],[-87.45238,30.3002],[-87.51838,30.2839],[-87.51837,30.12553],[-87.30281,30.1683],[-87.17692,30.17281],[-86.91833,30.21764],[-86.91894,30.38651],[-87.15312,30.34837],[-87.17902,30.33593],[-87.23143,30.34331],[-87.23266,30.37118],[-87.15191,30.4126],[-87.12145,30.49742],[-87.15729,30.53795],[-87.20971,30.55527],[-87.23477,30.59581],[-87.25951,30.61205],[-87.26068,30.62136],[-87.25194,30.62422],[-87.26478,30.64964],[-87.26549,30.68837],[-87.27336,30.69352],[-87.26941,30.71169],[-87.28145,30.71962],[-87.30266,30.71937],[-87.31241,30.73477],[-87.29943,30.76675],[-87.31059,30.77171],[-87.30518,30.77724],[-87.31261,30.78599],[-87.30195,30.78977],[-87.30546,30.79857],[-87.29277,30.81128],[-87.30137,30.84152],[-87.31391,30.84871],[-87.29763,30.87118],[-87.29844,30.88125],[-87.28329,30.89134],[-87.29051,30.90823],[-87.28218,30.9104],[-87.28688,30.92544],[-87.26721,30.93498],[-87.256,30.93119],[-87.24146,30.94858],[-87.24132,30.96186],[-87.23143,30.96832],[-87.22763,30.96111],[-87.2132,30.96203],[-87.17496,30.98862],[-87.176,30.99659],[-87.16365,30.99903],[-87.59883,30.99746],[-87.59093,30.95351],[-87.63487,30.86634]]]},"properties":{"NAME":"Escambia County","BASENAME":"Escambia","GEOID":"12033"}},{"type":"Feature","geometry":{"type":"Polygon","coordinates":[[[-81.21426,27.52888],[-81.19944,27.51505],[-81.20512,27.48973],[-81.18272,27.48387],[-81.17289,27.46307],[-81.14487,27.44501],[-81.13862,27.42409],[-81.14408,27.41228],[-81.12335,27.40316],[-81.12156,27.38997],[-81.09834,27.37908],[-81.0684,27.38235],[-81.05002,27.37066],[-81.05114,27.36302],[-81.03443,27.35916],[-81.03075,27.3514],[-81.04259,27.34722],[-81.04411,27.32967],[-81.03,27.32358],[-81.0256,27.30237],[-80.9946,27.29733],[-81.00073,27.26776],[-80.99305,27.25055],[-80.98061,27.24641],[-80.98508,27.23133],[-80.96185,27.21516],[-80.95119,27.22461],[-80.93496,27.19637],[-80.9064,27.18905],[-80.91019,27.17498],[-80.90341,27.16904],[-80.87867,27.16922],[-80.87024,27.15227],[-80.88564,26.95892],[-80.67743,27.12162],[-80.67966,27.55874],[-80.77717,27.55873],[-80.77805,27.64319],[-81.14216,27.64324],[-81.14048,27.60083],[-81.15529,27.59161],[-81.15658,27.57449],[-81.20568,27.54768],[-81.20247,27.5394],[-81.21426,27.52888]]]},"properties":{"NAME":"Okeechobee County","BASENAME":"Okeechobee","GEOID":"12093"}}]}
